[{"OBJECT_NAME":"CORVUS BC2","OBJECT_ID":"2017-042X","EPOCH":"2026-03-09T22:14:39.055488","MEAN_MOTION":15.05610206,"ECCENTRICITY":0.00145863,"INCLINATION":97.3955,"RA_OF_ASC_NODE":234.2405,"ARG_OF_PERICENTER":92.385,"MEAN_ANOMALY":267.9047,"EPHEMERIS_TYPE":0,"CLASSIFICATION_TYPE":"U","NORAD_CAT_ID":42846,"ELEMENT_SET_NO":999,"REV_AT_EPOCH":47212,"BSTAR":0.00034626467,"MEAN_MOTION_DOT":4.947e-5,"MEAN_MOTION_DDOT":0},{"OBJECT_NAME":"STARLINK-4145","OBJECT_ID":"2022-083F","EPOCH":"2026-03-09T14:30:50.222880","MEAN_MOTION":15.08839686,"ECCENTRICITY":0.0001334,"INCLINATION":53.218,"RA_OF_ASC_NODE":174.5037,"ARG_OF_PERICENTER":92.5029,"MEAN_ANOMALY":267.6116,"EPHEMERIS_TYPE":0,"CLASSIFICATION_TYPE":"U","NORAD_CAT_ID":53137,"ELEMENT_SET_NO":999,"REV_AT_EPOCH":20120,"BSTAR":-6.0578e-6,"MEAN_MOTION_DOT":-3.84e-6,"MEAN_MOTION_DDOT":0}]
