CORVUS BC2              
1 42846U 17042X   26068.92684092  .00004947  00000+0  34626-3 0  9997
2 42846  97.3955 234.2405 0014586  92.3850 267.9047 15.05610206472122
STARLINK-4145           
1 53137U 22083F   26068.60474795 -.00000384  00000+0 -60578-5 0  9995
2 53137  53.2180 174.5037 0001334  92.5029 267.6116 15.08839686201203
